CCSDS_OMM_VERS = 2.0
CREATION_DATE  = 
ORIGINATOR     = 

OBJECT_NAME    = ALOS (DAICHI)
OBJECT_ID      = 2006-002A
CENTER_NAME    = EARTH
REF_FRAME      = TEME
TIME_SYSTEM    = UTC
MEAN_ELEMENT_THEORY = SGP/SGP4

EPOCH          = 2026-02-12T10:47:50.346528
MEAN_MOTION    = 14.69725875
ECCENTRICITY   = .00019411
INCLINATION    = 98.1173
RA_OF_ASC_NODE = 359.5410
ARG_OF_PERICENTER = 61.7200
MEAN_ANOMALY   = 298.4202

EPHEMERIS_TYPE = 0
CLASSIFICATION_TYPE = U
NORAD_CAT_ID   = 28931
ELEMENT_SET_NO = 999
REV_AT_EPOCH   = 6977
BSTAR          = .28519343E-3
MEAN_MOTION_DOT = .165E-4
MEAN_MOTION_DDOT = 0

CCSDS_OMM_VERS = 2.0
CREATION_DATE  = 
ORIGINATOR     = 

OBJECT_NAME    = H-2A R/B
OBJECT_ID      = 2006-002B
CENTER_NAME    = EARTH
REF_FRAME      = TEME
TIME_SYSTEM    = UTC
MEAN_ELEMENT_THEORY = SGP/SGP4

EPOCH          = 2026-02-12T09:32:51.881280
MEAN_MOTION    = 15.15903763
ECCENTRICITY   = .00525042
INCLINATION    = 98.2361
RA_OF_ASC_NODE = 188.2660
ARG_OF_PERICENTER = 328.4122
MEAN_ANOMALY   = 31.3960

EPHEMERIS_TYPE = 0
CLASSIFICATION_TYPE = U
NORAD_CAT_ID   = 28932
ELEMENT_SET_NO = 999
REV_AT_EPOCH   = 9060
BSTAR          = .50043997E-3
MEAN_MOTION_DOT = .9851E-4
MEAN_MOTION_DDOT = 0

CCSDS_OMM_VERS = 2.0
CREATION_DATE  = 
ORIGINATOR     = 

OBJECT_NAME    = RESURS-DK 1
OBJECT_ID      = 2006-021A
CENTER_NAME    = EARTH
REF_FRAME      = TEME
TIME_SYSTEM    = UTC
MEAN_ELEMENT_THEORY = SGP/SGP4

EPOCH          = 2026-02-12T03:25:09.338016
MEAN_MOTION    = 15.12596727
ECCENTRICITY   = .00042605
INCLINATION    = 69.9344
RA_OF_ASC_NODE = 303.1005
ARG_OF_PERICENTER = 200.4602
MEAN_ANOMALY   = 159.6394

EPHEMERIS_TYPE = 0
CLASSIFICATION_TYPE = U
NORAD_CAT_ID   = 29228
ELEMENT_SET_NO = 999
REV_AT_EPOCH   = 8366
BSTAR          = .17540989E-3
MEAN_MOTION_DOT = .2963E-4
MEAN_MOTION_DDOT = 0

CCSDS_OMM_VERS = 2.0
CREATION_DATE  = 
ORIGINATOR     = 

OBJECT_NAME    = CZ-4B R/B
OBJECT_ID      = 2006-046C
CENTER_NAME    = EARTH
REF_FRAME      = TEME
TIME_SYSTEM    = UTC
MEAN_ELEMENT_THEORY = SGP/SGP4

EPOCH          = 2026-02-12T14:32:33.361152
MEAN_MOTION    = 15.16631332
ECCENTRICITY   = .00332447
INCLINATION    = 97.5650
RA_OF_ASC_NODE = 88.5809
ARG_OF_PERICENTER = 357.3456
MEAN_ANOMALY   = 2.7595

EPHEMERIS_TYPE = 0
CLASSIFICATION_TYPE = U
NORAD_CAT_ID   = 29507
ELEMENT_SET_NO = 999
REV_AT_EPOCH   = 5624
BSTAR          = .27686147E-3
MEAN_MOTION_DOT = .542E-4
MEAN_MOTION_DDOT = 0

CCSDS_OMM_VERS = 2.0
CREATION_DATE  = 
ORIGINATOR     = 

OBJECT_NAME    = CZ-2C R/B
OBJECT_ID      = 2007-010B
CENTER_NAME    = EARTH
REF_FRAME      = TEME
TIME_SYSTEM    = UTC
MEAN_ELEMENT_THEORY = SGP/SGP4

EPOCH          = 2026-02-12T07:02:25.675008
MEAN_MOTION    = 14.20237340
ECCENTRICITY   = .005909
INCLINATION    = 98.3970
RA_OF_ASC_NODE = 157.8472
ARG_OF_PERICENTER = 9.2239
MEAN_ANOMALY   = 351.0009

EPHEMERIS_TYPE = 0
CLASSIFICATION_TYPE = U
NORAD_CAT_ID   = 31114
ELEMENT_SET_NO = 999
REV_AT_EPOCH   = 97611
BSTAR          = .76577E-4
MEAN_MOTION_DOT = .125E-5
MEAN_MOTION_DDOT = 0

CCSDS_OMM_VERS = 2.0
CREATION_DATE  = 
ORIGINATOR     = 

OBJECT_NAME    = COSMO-SKYMED 1
OBJECT_ID      = 2007-023A
CENTER_NAME    = EARTH
REF_FRAME      = TEME
TIME_SYSTEM    = UTC
MEAN_ELEMENT_THEORY = SGP/SGP4

EPOCH          = 2026-02-12T14:08:37.557312
MEAN_MOTION    = 14.96331732
ECCENTRICITY   = .00009597
INCLINATION    = 97.8859
RA_OF_ASC_NODE = 234.4240
ARG_OF_PERICENTER = 91.8901
MEAN_ANOMALY   = 268.2430

EPHEMERIS_TYPE = 0
CLASSIFICATION_TYPE = U
NORAD_CAT_ID   = 31598
ELEMENT_SET_NO = 999
REV_AT_EPOCH   = 1115
BSTAR          = .32758318E-3
MEAN_MOTION_DOT = .3646E-4
MEAN_MOTION_DDOT = 0

CCSDS_OMM_VERS = 2.0
CREATION_DATE  = 
ORIGINATOR     = 

OBJECT_NAME    = COSMOS 2428
OBJECT_ID      = 2007-029A
CENTER_NAME    = EARTH
REF_FRAME      = TEME
TIME_SYSTEM    = UTC
MEAN_ELEMENT_THEORY = SGP/SGP4

EPOCH          = 2026-02-12T14:45:18.394272
MEAN_MOTION    = 14.12935539
ECCENTRICITY   = .00076052
INCLINATION    = 70.9397
RA_OF_ASC_NODE = 255.9789
ARG_OF_PERICENTER = 305.1946
MEAN_ANOMALY   = 54.8462

EPHEMERIS_TYPE = 0
CLASSIFICATION_TYPE = U
NORAD_CAT_ID   = 31792
ELEMENT_SET_NO = 999
REV_AT_EPOCH   = 96055
BSTAR          = .18293098E-3
MEAN_MOTION_DOT = .293E-5
MEAN_MOTION_DDOT = 0

CCSDS_OMM_VERS = 2.0
CREATION_DATE  = 
ORIGINATOR     = 

OBJECT_NAME    = SL-16 R/B
OBJECT_ID      = 2007-029B
CENTER_NAME    = EARTH
REF_FRAME      = TEME
TIME_SYSTEM    = UTC
MEAN_ELEMENT_THEORY = SGP/SGP4

EPOCH          = 2026-02-12T14:33:28.948320
MEAN_MOTION    = 14.14834917
ECCENTRICITY   = .00021431
INCLINATION    = 70.9740
RA_OF_ASC_NODE = 225.1089
ARG_OF_PERICENTER = 281.4141
MEAN_ANOMALY   = 140.8783

EPHEMERIS_TYPE = 0
CLASSIFICATION_TYPE = U
NORAD_CAT_ID   = 31793
ELEMENT_SET_NO = 999
REV_AT_EPOCH   = 96182
BSTAR          = .16208106E-3
MEAN_MOTION_DOT = .265E-5
MEAN_MOTION_DDOT = 0

CCSDS_OMM_VERS = 2.0
CREATION_DATE  = 
ORIGINATOR     = 

OBJECT_NAME    = KORONAS-FOTON
OBJECT_ID      = 2009-003A
CENTER_NAME    = EARTH
REF_FRAME      = TEME
TIME_SYSTEM    = UTC
MEAN_ELEMENT_THEORY = SGP/SGP4

EPOCH          = 2026-02-12T14:26:38.713344
MEAN_MOTION    = 15.42658985
ECCENTRICITY   = .0009025
INCLINATION    = 82.4317
RA_OF_ASC_NODE = 301.9454
ARG_OF_PERICENTER = 244.8305
MEAN_ANOMALY   = 115.2006

EPHEMERIS_TYPE = 0
CLASSIFICATION_TYPE = U
NORAD_CAT_ID   = 33504
ELEMENT_SET_NO = 999
REV_AT_EPOCH   = 94187
BSTAR          = .29495766E-3
MEAN_MOTION_DOT = .12907E-3
MEAN_MOTION_DDOT = 0

CCSDS_OMM_VERS = 2.0
CREATION_DATE  = 
ORIGINATOR     = 

OBJECT_NAME    = CZ-2C R/B
OBJECT_ID      = 2011-030B
CENTER_NAME    = EARTH
REF_FRAME      = TEME
TIME_SYSTEM    = UTC
MEAN_ELEMENT_THEORY = SGP/SGP4

EPOCH          = 2026-02-12T11:47:53.534976
MEAN_MOTION    = 14.81123240
ECCENTRICITY   = .00541721
INCLINATION    = 97.8498
RA_OF_ASC_NODE = 1.2696
ARG_OF_PERICENTER = 72.7799
MEAN_ANOMALY   = 43.3834

EPHEMERIS_TYPE = 0
CLASSIFICATION_TYPE = U
NORAD_CAT_ID   = 37731
ELEMENT_SET_NO = 999
REV_AT_EPOCH   = 78636
BSTAR          = .23017656E-3
MEAN_MOTION_DOT = .178E-4
MEAN_MOTION_DDOT = 0

CCSDS_OMM_VERS = 2.0
CREATION_DATE  = 
ORIGINATOR     = 

OBJECT_NAME    = H-2A R/B
OBJECT_ID      = 2012-025E
CENTER_NAME    = EARTH
REF_FRAME      = TEME
TIME_SYSTEM    = UTC
MEAN_ELEMENT_THEORY = SGP/SGP4

EPOCH          = 2026-02-12T11:55:23.373984
MEAN_MOTION    = 14.94941990
ECCENTRICITY   = .00455383
INCLINATION    = 98.4676
RA_OF_ASC_NODE = 8.5403
ARG_OF_PERICENTER = 36.6700
MEAN_ANOMALY   = 323.7620

EPHEMERIS_TYPE = 0
CLASSIFICATION_TYPE = U
NORAD_CAT_ID   = 38341
ELEMENT_SET_NO = 999
REV_AT_EPOCH   = 74445
BSTAR          = .40695706E-3
MEAN_MOTION_DOT = .4467E-4
MEAN_MOTION_DDOT = 0

CCSDS_OMM_VERS = 2.0
CREATION_DATE  = 
ORIGINATOR     = 

OBJECT_NAME    = SHIJIAN-16 (SJ-16)
OBJECT_ID      = 2013-057A
CENTER_NAME    = EARTH
REF_FRAME      = TEME
TIME_SYSTEM    = UTC
MEAN_ELEMENT_THEORY = SGP/SGP4

EPOCH          = 2026-02-12T14:56:26.123712
MEAN_MOTION    = 14.92251285
ECCENTRICITY   = .0016629
INCLINATION    = 74.9706
RA_OF_ASC_NODE = 232.5393
ARG_OF_PERICENTER = 175.4541
MEAN_ANOMALY   = 184.6802

EPHEMERIS_TYPE = 0
CLASSIFICATION_TYPE = U
NORAD_CAT_ID   = 39358
ELEMENT_SET_NO = 999
REV_AT_EPOCH   = 66776
BSTAR          = .1851E-3
MEAN_MOTION_DOT = .1864E-4
MEAN_MOTION_DDOT = 0

