ALOS (DAICHI)           
1 28931U 06002A   26043.44988827  .00001650  00000+0  28519-3 0  9995
2 28931  98.1173 359.5410 0001941  61.7200 298.4202 14.69725875 69772
H-2A R/B                
1 28932U 06002B   26043.39782270  .00009851  00000+0  50044-3 0  9993
2 28932  98.2361 188.2660 0052504 328.4122  31.3960 15.15903763 90601
RESURS-DK 1             
1 29228U 06021A   26043.14246919  .00002963  00000+0  17541-3 0  9993
2 29228  69.9344 303.1005 0004260 200.4602 159.6394 15.12596727 83663
CZ-4B R/B               
1 29507U 06046C   26043.60594168  .00005420  00000+0  27686-3 0  9995
2 29507  97.5650  88.5809 0033244 357.3456   2.7595 15.16631332 56240
CZ-2C R/B               
1 31114U 07010B   26043.29335272  .00000125  00000+0  76577-4 0  9999
2 31114  98.3970 157.8472 0059090   9.2239 351.0009 14.20237340976118
COSMO-SKYMED 1          
1 31598U 07023A   26043.58932358  .00003646  00000+0  32758-3 0  9992
2 31598  97.8859 234.4240 0000959  91.8901 268.2430 14.96331732 11156
COSMOS 2428             
1 31792U 07029A   26043.61479623  .00000293  00000+0  18293-3 0  9992
2 31792  70.9397 255.9789 0007605 305.1946  54.8462 14.12935539960556
SL-16 R/B               
1 31793U 07029B   26043.60658505  .00000265  00000+0  16208-3 0  9993
2 31793  70.9740 225.1089 0002143 281.4141 140.8783 14.14834917961829
KORONAS-FOTON           
1 33504U 09003A   26043.60183696  .00012907  00000+0  29496-3 0  9992
2 33504  82.4317 301.9454 0009025 244.8305 115.2006 15.42658985941877
CZ-2C R/B               
1 37731U 11030B   26043.49159184  .00001780  00000+0  23018-3 0  9994
2 37731  97.8498   1.2696 0054172  72.7799  43.3834 14.81123240786363
H-2A R/B                
1 38341U 12025E   26043.49679831  .00004467  00000+0  40696-3 0  9999
2 38341  98.4676   8.5403 0045538  36.6700 323.7620 14.94941990744455
SHIJIAN-16 (SJ-16)      
1 39358U 13057A   26043.62252458  .00001864  00000+0  18510-3 0  9999
2 39358  74.9706 232.5393 0016629 175.4541 184.6802 14.92251285667761
